NORAD_CAT_ID,OBJECT_NAME,OBJECT_TYPE,EPOCH,MEAN_MOTION,ECCENTRICITY,INCLINATION,RA_OF_ASC_NODE,ARG_OF_PERICENTER,MEAN_ANOMALY,BSTAR,MEAN_MOTION_DOT,MEAN_MOTION_DDOT,TLE_LINE0,TLE_LINE1,TLE_LINE2,SEMIMAJOR_AXIS,PERIOD,APOGEE,PERIGEE,DECAYED
53156.0,STARLINK-4087,PAYLOAD,2022-09-06 22:00:00,15.49885766,0.0001294,53.2176,153.7044,65.4311,282.5503,-4.4356e-06,-7.03e-06,0.0,0 STARLINK-4087,1 53156U 22083AA  22249.91667824 -.00000703  00000-0 -44356-5 0  9996,2 53156  53.2176 153.7044 0001294  65.4311 282.5503 15.49885766  1304,6795.196999999999,92.91,417.941,416.1830000000001,0.0
53156.0,STARLINK-4087,PAYLOAD,2022-09-07 04:00:00,15.49894601,0.0001695,53.2148,152.5178,72.4643,231.2352,0.0010335999999999,0.00058672,0.0,0 STARLINK-4087,1 53156U 22083AA  22250.16667824  .00058672  00000-0  10336-2 0  9999,2 53156  53.2148 152.5178 0001695  72.4643 231.2352 15.49894601  8756,6795.170999999999,92.91,418.18800000000016,415.884,0.0
53156.0,STARLINK-4087,PAYLOAD,2022-09-07 14:00:01,15.49915471,0.0001443,53.2147,150.5244,82.4049,27.4813,-0.00081551,-0.00046512,0.0,0 STARLINK-4087,1 53156U 22083AA  22250.58334491 -.00046512  00000-0 -81551-3 0  9996,2 53156  53.2147 150.5244 0001443  82.4049  27.4813 15.49915471  8823,6795.11,92.908,417.956,415.995,0.0
53156.0,STARLINK-4087,PAYLOAD,2022-09-07 22:00:00,15.49885459,0.00014,53.2148,148.9326,77.7813,93.0354,-0.00025675,-0.00014996,0.0,0 STARLINK-4087,1 53156U 22083AA  22250.91667824 -.00014996  00000-0 -25675-3 0  9998,2 53156  53.2148 148.9326 0001400  77.7813  93.0354 15.49885459  1302,6795.198,92.91,418.014,416.112,0.0
53156.0,STARLINK-4087,PAYLOAD,2022-09-08 06:00:00,15.49866312,8.25e-05,53.2145,147.34,70.1696,161.6356,0.00033439,0.0001855999999999,0.0,0 STARLINK-4087,1 53156U 22083AA  22251.25001157  .00018560  00000-0  33439-3 0  9993,2 53156  53.2145 147.3400 0000825  70.1696 161.6356 15.49866312  8927,6795.254,92.911,417.679,416.5580000000001,0.0
53156.0,STARLINK-4087,PAYLOAD,2022-09-08 14:00:01,15.49849424,7.68e-05,53.2149,145.7451,88.2931,204.4149,0.0010733,0.00060862,0.0,0 STARLINK-4087,1 53156U 22083AA  22251.58334491  .00060862  00000-0  10733-2 0  9992,2 53156  53.2149 145.7451 0000768  88.2931 204.4149 15.49849424  1303,6795.303000000001,92.912,417.69,416.646,0.0
53156.0,STARLINK-4087,PAYLOAD,2022-09-08 22:00:00,15.49900859,8.58e-05,53.2151,144.1534,78.0293,275.5743,-0.00027228,-0.00015881,0.0,0 STARLINK-4087,1 53156U 22083AA  22251.91667824 -.00015881  00000-0 -27228-3 0  9999,2 53156  53.2151 144.1534 0000858  78.0293 275.5743 15.49900859  1308,6795.153,92.909,417.601,416.435,0.0
53156.0,STARLINK-4087,PAYLOAD,2022-09-09 04:00:00,15.49898122,9.03e-05,53.2152,142.9595,67.9337,241.3644,-0.00029141,-0.00016961,0.0,0 STARLINK-4087,1 53156U 22083AA  22252.16667824 -.00016961  00000-0 -29141-3 0  9993,2 53156  53.2152 142.9595 0000903  67.9337 241.3644 15.49898122  9060,6795.161,92.909,417.639,416.412,0.0
53156.0,STARLINK-4087,PAYLOAD,2022-09-09 14:00:01,15.49828052,0.0001042999999999,53.2153,140.9659,85.2229,30.2324,0.00096198,0.00054416,0.0,0 STARLINK-4087,1 53156U 22083AA  22252.58334491  .00054416  00000-0  96198-3 0  9991,2 53156  53.2153 140.9659 0001043  85.2229  30.2324 15.49828052  1303,6795.366,92.914,417.939,416.522,0.0
53156.0,STARLINK-4087,PAYLOAD,2022-09-09 22:00:00,15.4986995,0.000113,53.2155,139.3744,76.6997,99.6243,-0.00019129,-0.00011286,0.0,0 STARLINK-4087,1 53156U 22083AA  22252.91667824 -.00011286  00000-0 -19129-3 0  9996,2 53156  53.2155 139.3744 0001130  76.6997  99.6243 15.49869950  1306,6795.243,92.911,417.876,416.34,0.0
53156.0,STARLINK-4087,PAYLOAD,2022-09-10 12:00:00,15.49863856,0.0001029,53.215,136.5852,80.8498,112.0579,0.00084242,0.00047616,0.0,0 STARLINK-4087,1 53156U 22083AA  22253.50001157  .00047616  00000-0  84242-3 0  9995,2 53156  53.2150 136.5852 0001029  80.8498 112.0579 15.49863856  9275,6795.261,92.911,417.825,416.427,0.0
53156.0,STARLINK-4087,PAYLOAD,2022-09-10 14:00:01,15.49861921,0.0001066999999999,53.2148,136.1868,83.3018,214.831,0.0010485,0.00059461,0.0,0 STARLINK-4087,1 53156U 22083AA  22253.58334491  .00059461  00000-0  10485-2 0  9991,2 53156  53.2148 136.1868 0001067  83.3018 214.8310 15.49861921  1304,6795.267,92.912,417.857,416.407,0.0
53156.0,STARLINK-4087,PAYLOAD,2022-09-10 22:00:00,15.4990536,0.0001155,53.2146,134.5953,74.9011,284.1426,-0.00022785,-0.0001337,0.0,0 STARLINK-4087,1 53156U 22083AA  22253.91667824 -.00013370  00000-0 -22785-3 0  9995,2 53156  53.2146 134.5953 0001155  74.9011 284.1426 15.49905360  1300,6795.14,92.909,417.79,416.22,0.0
53156.0,STARLINK-4087,PAYLOAD,2022-09-11 04:00:00,15.49910186,0.0001114,53.2148,133.3993,64.0797,250.6611,-0.00013092,-7.881e-05,0.0,0 STARLINK-4087,1 53156U 22083AA  22254.16667824 -.00007881  00000-0 -13092-3 0  9994,2 53156  53.2148 133.3993 0001114  64.0797 250.6611 15.49910186  9370,6795.126,92.909,417.74800000000016,416.234,0.0
53156.0,STARLINK-4087,PAYLOAD,2022-09-11 14:00:01,15.4992392,0.0001185,53.214,131.4073,87.2892,33.6366,-0.00082036,-0.00046797,0.0,0 STARLINK-4087,1 53156U 22083AA  22254.58334491 -.00046797  00000-0 -82036-3 0  9994,2 53156  53.2140 131.4073 0001185  87.2892  33.6366 15.49923920  1302,6795.085,92.908,417.756,416.145,0.0
53156.0,STARLINK-4087,PAYLOAD,2022-09-11 22:00:00,15.49879944,0.000131,53.2141,129.816,78.6877,103.1827,-4.1306e-06,-6.86e-06,0.0,0 STARLINK-4087,1 53156U 22083AA  22254.91667824 -.00000686  00000-0 -41306-5 0  9994,2 53156  53.2141 129.8160 0001310  78.6877 103.1827 15.49879944  1309,6795.214,92.91,417.969,416.189,0.0
53156.0,STARLINK-4087,PAYLOAD,2022-09-12 12:00:00,15.4989683,0.0001114,53.2141,127.025,86.0167,112.4419,-0.00076221,-0.00043489,0.0,0 STARLINK-4087,1 53156U 22083AA  22255.50001157 -.00043489  00000-0 -76221-3 0  9991,2 53156  53.2141 127.0250 0001114  86.0167 112.4419 15.49896830  9587,6795.165,92.909,417.787,416.273,0.0
53156.0,STARLINK-4087,PAYLOAD,2022-09-12 14:00:01,15.49883736,0.0001151,53.2145,126.6257,88.2186,215.4731,-0.00051666,-0.00029662,0.0,0 STARLINK-4087,1 53156U 22083AA  22255.58334491 -.00029662  00000-0 -51666-3 0  9992,2 53156  53.2145 126.6257 0001151  88.2186 215.4731 15.49883736  1303,6795.203,92.91,417.85,416.286,0.0
53156.0,STARLINK-4087,PAYLOAD,2022-09-12 20:00:01,15.50130028,0.000105,53.215,125.4298,76.536,182.8905,-0.014875,-0.00783273,0.0,0 STARLINK-4087,1 53156U 22083AA  22255.83335648 -.00783273  00000-0 -14875-1 0  9999,2 53156  53.2150 125.4298 0001050  76.5360 182.8905 15.50130028  9638,6794.483,92.895,417.062,415.635,0.0
53156.0,STARLINK-4087,PAYLOAD,2022-09-12 22:00:00,15.49950223,0.0001142,53.2153,125.0309,85.2362,279.4025,-0.012246,-0.00642644,0.0,0 STARLINK-4087,1 53156U 22083AA  22255.91667824 -.00642644  00000-0 -12246-1 0  9998,2 53156  53.2153 125.0309 0001142  85.2362 279.4025 15.49950223  1308,6795.009,92.906,417.65,416.098,0.0
53156.0,STARLINK-4087,PAYLOAD,2022-09-13 06:00:00,15.49760197,0.0001024,53.2168,123.435,87.2378,338.0434,-0.019768,-0.01018065,0.0,0 STARLINK-4087,1 53156U 22083AA  22256.25001157 -.01018065  00000-0 -19768-1 0  9998,2 53156  53.2168 123.4350 0001024  87.2378 338.0434 15.49760197  9707,6795.564,92.918,418.125,416.733,0.0
53156.0,STARLINK-4087,PAYLOAD,2022-09-13 14:00:01,15.490279,0.0001224,53.2174,121.8405,94.2176,31.3859,-0.021188,-0.01059147,0.0,0 STARLINK-4087,1 53156U 22083AA  22256.58334491 -.01059147  00000-0 -21188-1 0  9999,2 53156  53.2174 121.8405 0001224  94.2176  31.3859 15.49027900  1303,6797.706,92.962,420.403,418.73800000000006,0.0
53156.0,STARLINK-4087,PAYLOAD,2022-09-13 16:00:00,15.48837714,0.0001317,53.2176,121.443,100.8746,129.6689,-0.021294,-0.01057498,0.0,0 STARLINK-4087,1 53156U 22083AA  22256.66667824 -.01057498  00000-0 -21294-1 0  9992,2 53156  53.2176 121.4430 0001317 100.8746 129.6689 15.48837714  9760,6798.262,92.973,421.022,419.232,0.0
53156.0,STARLINK-4087,PAYLOAD,2022-09-13 22:00:00,15.48267633,0.0001317,53.2174,120.2515,91.3672,93.6548,-0.021728,-0.01057558,0.0,0 STARLINK-4087,1 53156U 22083AA  22256.91667824 -.01057558  00000-0 -21728-1 0  9999,2 53156  53.2174 120.2515 0001317  91.3672  93.6548 15.48267633  1304,6799.931,93.007,422.691,420.9,0.0
53156.0,STARLINK-4087,PAYLOAD,2022-09-14 14:00:01,15.46776635,0.0001188,53.2167,117.0743,73.9244,227.183,-0.023714,-0.01091881,0.0,0 STARLINK-4087,1 53156U 22083AA  22257.58334491 -.01091881  00000-0 -23714-1 0  9998,2 53156  53.2167 117.0743 0001188  73.9244 227.1830 15.46776635  1303,6804.3,93.097,426.973,425.356,0.0
53156.0,STARLINK-4087,PAYLOAD,2022-09-14 22:00:00,15.45996394,0.0001029,53.217,115.491,86.9981,270.8008,-0.023729,-0.01065942,0.0,0 STARLINK-4087,1 53156U 22083AA  22257.91667824 -.01065942  00000-0 -23729-1 0  9999,2 53156  53.2170 115.4910 0001029  86.9981 270.8008 15.45996394  1308,6806.589,93.144,429.154,427.754,0.0
53156.0,STARLINK-4087,PAYLOAD,2022-09-15 14:00:01,15.44482261,0.0001346,53.2166,112.3232,65.3367,43.0843,-0.025097,-0.01069774,0.0,0 STARLINK-4087,1 53156U 22083AA  22258.58334491 -.01069774  00000-0 -25097-1 0  9991,2 53156  53.2166 112.3232 0001346  65.3367  43.0843 15.44482261  1306,6811.0369999999975,93.235,433.819,431.985,0.0
53156.0,STARLINK-4087,PAYLOAD,2022-09-15 22:00:00,15.4371074,0.0001463,53.2173,110.7442,60.7031,101.6687,-0.025416,-0.01056543,0.0,0 STARLINK-4087,1 53156U 22083AA  22258.91667824 -.01056543  00000-0 -25416-1 0  9992,2 53156  53.2173 110.7442 0001463  60.7031 101.6687 15.43710740  1308,6813.306,93.282,436.168,434.174,0.0
53156.0,STARLINK-4087,PAYLOAD,2022-09-16 14:00:01,15.42190716,0.0001262,53.2174,107.5875,80.8623,186.6596,-0.026685,-0.01068539,0.0,0 STARLINK-4087,1 53156U 22083AA  22259.58334491 -.01068539  00000-0 -26685-1 0  9994,2 53156  53.2174 107.5875 0001262  80.8623 186.6596 15.42190716  1306,6817.781999999997,93.374,440.508,438.787,0.0
